STARLINK-36973          
1 68078U 26042K   26079.56247472  .00282715  00000+0  13836-2 0  9991
2 68078  53.1579 140.1998 0001214  78.3917 281.7242 15.80965569  3807
STARLINK-37063          
1 68079U 26042L   26079.56322436  .00176693  00000+0  87827-3 0  9995
2 68079  53.1579 140.2054 0001118  75.4724 284.6423 15.80929439  3808
STARLINK-37051          
1 68080U 26042M   26079.56097285  .00260491  00000+0  12781-2 0  9994
2 68080  53.1578 140.1895 0001287  76.6606 283.4561 15.80971068  3805
STARLINK-37066          
1 68081U 26042N   26079.56178307 -.00422737  00000+0 -22902-2 0  9991
2 68081  53.1580 140.1950 0002365  38.5390 321.5801 15.80430366  3808
STARLINK-37054          
1 68082U 26042P   26079.56022535  .00172929  00000+0  85994-3 0  9997
2 68082  53.1582 140.1849 0001475  70.3653 289.7529 15.80931135  3807
STARLINK-37065          
1 68083U 26042Q   26079.50001157  .00040958  00000+0  27022-3 0  9993
2 68083  53.1590 140.5348 0001512  87.9739 265.9375 15.75225682  3785
STARLINK-37037          
1 68084U 26042R   26079.55872481  .00147492  00000+0  73642-3 0  9995
2 68084  53.1581 140.1747 0001405  84.0346 276.0837 15.80922600  3807
STARLINK-37068          
1 68085U 26042S   26079.62119229  .00244642  00000+0  12035-2 0  9991
2 68085  53.1580 139.8528 0001321 100.8655 259.2517 15.80959013  3813
STARLINK-37067          
1 68086U 26042T   26079.55722391  .00183202  00000+0  90949-3 0  9999
2 68086  53.1581 140.1646 0001448  71.2932 288.8248 15.80936784  3808
STARLINK-37062          
1 68087U 26042U   26079.50001157  .00050404  00000+0  25758-3 0  9998
2 68087  53.1585 140.4439 0001249  70.2574 328.3381 15.80859764  3783
STARLINK-37059          
1 68088U 26042V   26079.50001157 -.00001364  00000+0 -33684-5 0  9991
2 68088  53.1583 140.4352 0001165  80.9934 321.8706 15.80884325  3781
STARLINK-37004          
1 68089U 26042W   26079.50001157  .00038167  00000+0  19605-3 0  9996
2 68089  53.1585 140.4264 0001195  72.9028 334.2311 15.80873443  3783
