CCSDS_OMM_VERS = 2.0
CREATION_DATE  = 
ORIGINATOR     = 

OBJECT_NAME    = STARLINK-36973
OBJECT_ID      = 2026-042K
CENTER_NAME    = EARTH
REF_FRAME      = TEME
TIME_SYSTEM    = UTC
MEAN_ELEMENT_THEORY = SGP/SGP4

EPOCH          = 2026-03-20T13:29:57.815808
MEAN_MOTION    = 15.80965569
ECCENTRICITY   = .00012148
INCLINATION    = 53.1579
RA_OF_ASC_NODE = 140.1998
ARG_OF_PERICENTER = 78.3917
MEAN_ANOMALY   = 281.7242

EPHEMERIS_TYPE = 0
CLASSIFICATION_TYPE = U
NORAD_CAT_ID   = 68078
ELEMENT_SET_NO = 999
REV_AT_EPOCH   = 380
BSTAR          = .13836121E-2
MEAN_MOTION_DOT = .282715E-2
MEAN_MOTION_DDOT = 0

CCSDS_OMM_VERS = 2.0
CREATION_DATE  = 
ORIGINATOR     = 

OBJECT_NAME    = STARLINK-37063
OBJECT_ID      = 2026-042L
CENTER_NAME    = EARTH
REF_FRAME      = TEME
TIME_SYSTEM    = UTC
MEAN_ELEMENT_THEORY = SGP/SGP4

EPOCH          = 2026-03-20T13:31:02.584704
MEAN_MOTION    = 15.80929439
ECCENTRICITY   = .00011188
INCLINATION    = 53.1579
RA_OF_ASC_NODE = 140.2054
ARG_OF_PERICENTER = 75.4724
MEAN_ANOMALY   = 284.6423

EPHEMERIS_TYPE = 0
CLASSIFICATION_TYPE = U
NORAD_CAT_ID   = 68079
ELEMENT_SET_NO = 999
REV_AT_EPOCH   = 380
BSTAR          = .87826768E-3
MEAN_MOTION_DOT = .176693E-2
MEAN_MOTION_DDOT = 0

CCSDS_OMM_VERS = 2.0
CREATION_DATE  = 
ORIGINATOR     = 

OBJECT_NAME    = STARLINK-37051
OBJECT_ID      = 2026-042M
CENTER_NAME    = EARTH
REF_FRAME      = TEME
TIME_SYSTEM    = UTC
MEAN_ELEMENT_THEORY = SGP/SGP4

EPOCH          = 2026-03-20T13:27:48.054240
MEAN_MOTION    = 15.80971068
ECCENTRICITY   = .00012876
INCLINATION    = 53.1578
RA_OF_ASC_NODE = 140.1895
ARG_OF_PERICENTER = 76.6606
MEAN_ANOMALY   = 283.4561

EPHEMERIS_TYPE = 0
CLASSIFICATION_TYPE = U
NORAD_CAT_ID   = 68080
ELEMENT_SET_NO = 999
REV_AT_EPOCH   = 380
BSTAR          = .12781156E-2
MEAN_MOTION_DOT = .260491E-2
MEAN_MOTION_DDOT = 0

CCSDS_OMM_VERS = 2.0
CREATION_DATE  = 
ORIGINATOR     = 

OBJECT_NAME    = STARLINK-37066
OBJECT_ID      = 2026-042N
CENTER_NAME    = EARTH
REF_FRAME      = TEME
TIME_SYSTEM    = UTC
MEAN_ELEMENT_THEORY = SGP/SGP4

EPOCH          = 2026-03-20T13:28:58.057248
MEAN_MOTION    = 15.80430366
ECCENTRICITY   = .00023656
INCLINATION    = 53.1580
RA_OF_ASC_NODE = 140.1950
ARG_OF_PERICENTER = 38.5390
MEAN_ANOMALY   = 321.5801

EPHEMERIS_TYPE = 0
CLASSIFICATION_TYPE = U
NORAD_CAT_ID   = 68081
ELEMENT_SET_NO = 999
REV_AT_EPOCH   = 380
BSTAR          = -.22901808E-2
MEAN_MOTION_DOT = -.422737E-2
MEAN_MOTION_DDOT = 0

CCSDS_OMM_VERS = 2.0
CREATION_DATE  = 
ORIGINATOR     = 

OBJECT_NAME    = STARLINK-37054
OBJECT_ID      = 2026-042P
CENTER_NAME    = EARTH
REF_FRAME      = TEME
TIME_SYSTEM    = UTC
MEAN_ELEMENT_THEORY = SGP/SGP4

EPOCH          = 2026-03-20T13:26:43.470240
MEAN_MOTION    = 15.80931135
ECCENTRICITY   = .00014757
INCLINATION    = 53.1582
RA_OF_ASC_NODE = 140.1849
ARG_OF_PERICENTER = 70.3653
MEAN_ANOMALY   = 289.7529

EPHEMERIS_TYPE = 0
CLASSIFICATION_TYPE = U
NORAD_CAT_ID   = 68082
ELEMENT_SET_NO = 999
REV_AT_EPOCH   = 380
BSTAR          = .85993719E-3
MEAN_MOTION_DOT = .172929E-2
MEAN_MOTION_DDOT = 0

CCSDS_OMM_VERS = 2.0
CREATION_DATE  = 
ORIGINATOR     = 

OBJECT_NAME    = STARLINK-37065
OBJECT_ID      = 2026-042Q
CENTER_NAME    = EARTH
REF_FRAME      = TEME
TIME_SYSTEM    = UTC
MEAN_ELEMENT_THEORY = SGP/SGP4

EPOCH          = 2026-03-20T12:00:00.999648
MEAN_MOTION    = 15.75225682
ECCENTRICITY   = .00015123
INCLINATION    = 53.1590
RA_OF_ASC_NODE = 140.5348
ARG_OF_PERICENTER = 87.9739
MEAN_ANOMALY   = 265.9375

EPHEMERIS_TYPE = 0
CLASSIFICATION_TYPE = U
NORAD_CAT_ID   = 68083
ELEMENT_SET_NO = 999
REV_AT_EPOCH   = 378
BSTAR          = .27021763E-3
MEAN_MOTION_DOT = .40958E-3
MEAN_MOTION_DDOT = 0

CCSDS_OMM_VERS = 2.0
CREATION_DATE  = 
ORIGINATOR     = 

OBJECT_NAME    = STARLINK-37037
OBJECT_ID      = 2026-042R
CENTER_NAME    = EARTH
REF_FRAME      = TEME
TIME_SYSTEM    = UTC
MEAN_ELEMENT_THEORY = SGP/SGP4

EPOCH          = 2026-03-20T13:24:33.823584
MEAN_MOTION    = 15.80922600
ECCENTRICITY   = .00014054
INCLINATION    = 53.1581
RA_OF_ASC_NODE = 140.1747
ARG_OF_PERICENTER = 84.0346
MEAN_ANOMALY   = 276.0837

EPHEMERIS_TYPE = 0
CLASSIFICATION_TYPE = U
NORAD_CAT_ID   = 68084
ELEMENT_SET_NO = 999
REV_AT_EPOCH   = 380
BSTAR          = .73641957E-3
MEAN_MOTION_DOT = .147492E-2
MEAN_MOTION_DDOT = 0

CCSDS_OMM_VERS = 2.0
CREATION_DATE  = 
ORIGINATOR     = 

OBJECT_NAME    = STARLINK-37068
OBJECT_ID      = 2026-042S
CENTER_NAME    = EARTH
REF_FRAME      = TEME
TIME_SYSTEM    = UTC
MEAN_ELEMENT_THEORY = SGP/SGP4

EPOCH          = 2026-03-20T14:54:31.013856
MEAN_MOTION    = 15.80959013
ECCENTRICITY   = .00013215
INCLINATION    = 53.1580
RA_OF_ASC_NODE = 139.8528
ARG_OF_PERICENTER = 100.8655
MEAN_ANOMALY   = 259.2517

EPHEMERIS_TYPE = 0
CLASSIFICATION_TYPE = U
NORAD_CAT_ID   = 68085
ELEMENT_SET_NO = 999
REV_AT_EPOCH   = 381
BSTAR          = .1203452E-2
MEAN_MOTION_DOT = .244642E-2
MEAN_MOTION_DDOT = 0

CCSDS_OMM_VERS = 2.0
CREATION_DATE  = 
ORIGINATOR     = 

OBJECT_NAME    = STARLINK-37067
OBJECT_ID      = 2026-042T
CENTER_NAME    = EARTH
REF_FRAME      = TEME
TIME_SYSTEM    = UTC
MEAN_ELEMENT_THEORY = SGP/SGP4

EPOCH          = 2026-03-20T13:22:24.145824
MEAN_MOTION    = 15.80936784
ECCENTRICITY   = .00014488
INCLINATION    = 53.1581
RA_OF_ASC_NODE = 140.1646
ARG_OF_PERICENTER = 71.2932
MEAN_ANOMALY   = 288.8248

EPHEMERIS_TYPE = 0
CLASSIFICATION_TYPE = U
NORAD_CAT_ID   = 68086
ELEMENT_SET_NO = 999
REV_AT_EPOCH   = 380
BSTAR          = .90948952E-3
MEAN_MOTION_DOT = .183202E-2
MEAN_MOTION_DDOT = 0

CCSDS_OMM_VERS = 2.0
CREATION_DATE  = 
ORIGINATOR     = 

OBJECT_NAME    = STARLINK-37062
OBJECT_ID      = 2026-042U
CENTER_NAME    = EARTH
REF_FRAME      = TEME
TIME_SYSTEM    = UTC
MEAN_ELEMENT_THEORY = SGP/SGP4

EPOCH          = 2026-03-20T12:00:00.999648
MEAN_MOTION    = 15.80859764
ECCENTRICITY   = .0001249
INCLINATION    = 53.1585
RA_OF_ASC_NODE = 140.4439
ARG_OF_PERICENTER = 70.2574
MEAN_ANOMALY   = 328.3381

EPHEMERIS_TYPE = 0
CLASSIFICATION_TYPE = U
NORAD_CAT_ID   = 68087
ELEMENT_SET_NO = 999
REV_AT_EPOCH   = 378
BSTAR          = .25757526E-3
MEAN_MOTION_DOT = .50404E-3
MEAN_MOTION_DDOT = 0

CCSDS_OMM_VERS = 2.0
CREATION_DATE  = 
ORIGINATOR     = 

OBJECT_NAME    = STARLINK-37059
OBJECT_ID      = 2026-042V
CENTER_NAME    = EARTH
REF_FRAME      = TEME
TIME_SYSTEM    = UTC
MEAN_ELEMENT_THEORY = SGP/SGP4

EPOCH          = 2026-03-20T12:00:00.999648
MEAN_MOTION    = 15.80884325
ECCENTRICITY   = .00011652
INCLINATION    = 53.1583
RA_OF_ASC_NODE = 140.4352
ARG_OF_PERICENTER = 80.9934
MEAN_ANOMALY   = 321.8706

EPHEMERIS_TYPE = 0
CLASSIFICATION_TYPE = U
NORAD_CAT_ID   = 68088
ELEMENT_SET_NO = 999
REV_AT_EPOCH   = 378
BSTAR          = -.3368365E-5
MEAN_MOTION_DOT = -.1364E-4
MEAN_MOTION_DDOT = 0

CCSDS_OMM_VERS = 2.0
CREATION_DATE  = 
ORIGINATOR     = 

OBJECT_NAME    = STARLINK-37004
OBJECT_ID      = 2026-042W
CENTER_NAME    = EARTH
REF_FRAME      = TEME
TIME_SYSTEM    = UTC
MEAN_ELEMENT_THEORY = SGP/SGP4

EPOCH          = 2026-03-20T12:00:00.999648
MEAN_MOTION    = 15.80873443
ECCENTRICITY   = .00011953
INCLINATION    = 53.1585
RA_OF_ASC_NODE = 140.4264
ARG_OF_PERICENTER = 72.9028
MEAN_ANOMALY   = 334.2311

EPHEMERIS_TYPE = 0
CLASSIFICATION_TYPE = U
NORAD_CAT_ID   = 68089
ELEMENT_SET_NO = 999
REV_AT_EPOCH   = 378
BSTAR          = .19605238E-3
MEAN_MOTION_DOT = .38167E-3
MEAN_MOTION_DDOT = 0

